start=new Date('2022-01-03T00:00:00.000Z').valueOf();
sats=[{"COUNTRY_CODE":"US","CLASSIFICATION_TYPE":"U","MEAN_MOTION_DDOT":"0.0000000000000","REV_AT_EPOCH":"3634","ARG_OF_PERICENTER":"75.8324","MEAN_MOTION":"15.06391798","INCLINATION":"53.0520","APOAPSIS":"548.651","TLE_LINE2":"2 48472  53.0520 206.1587 0002039  75.8324 284.2891 15.06391798 36343","RCS_SIZE":"LARGE","CENTER_NAME":"EARTH","GP_ID":"192944739","FILE":"3255249","OBJECT_NAME":"STARLINK-2722","MEAN_ELEMENT_THEORY":"SGP4","MEAN_ANOMALY":"284.2891","LAUNCH_DATE":"2021-05-09","SITE":"AFETR","TLE_LINE1":"1 48472U 21040AW  22002.78387393 -.00000992  00000-0 -47671-4 0  9997","BSTAR":"-0.00004767100000","MEAN_MOTION_DOT":"-0.00000992","ECCENTRICITY":"0.00020390","ELEMENT_SET_NO":"999","PERIAPSIS":"545.827","OBJECT_TYPE":"PAYLOAD","NORAD_CAT_ID":"48472","REF_FRAME":"TEME","EPHEMERIS_TYPE":"0","TIME_SYSTEM":"UTC","PERIOD":"95.593","SEMIMAJOR_AXIS":"6925.374","RA_OF_ASC_NODE":"206.1587","OBJECT_ID":"2021-040AW","EPOCH":"2022-01-02T18:48:46.707552","DECAY_DATE":null},{"MEAN_MOTION":"15.06403791","INCLINATION":"53.0541","TLE_LINE2":"2 48473  53.0541 205.7124 0002310  77.3501 282.7746 15.06403791 36366","APOAPSIS":"548.802","CLASSIFICATION_TYPE":"U","COUNTRY_CODE":"US","REV_AT_EPOCH":"3636","ARG_OF_PERICENTER":"77.3501","MEAN_MOTION_DDOT":"0.0000000000000","MEAN_ANOMALY":"282.7746","MEAN_ELEMENT_THEORY":"SGP4","LAUNCH_DATE":"2021-05-09","TLE_LINE1":"1 48473U 21040AX  22002.88706199  .00000894  00000-0  78908-4 0  9994","SITE":"AFETR","CENTER_NAME":"EARTH","RCS_SIZE":"LARGE","OBJECT_NAME":"STARLINK-2658","GP_ID":"192944488","FILE":"3255249","ELEMENT_SET_NO":"999","OBJECT_TYPE":"PAYLOAD","PERIAPSIS":"545.602","MEAN_MOTION_DOT":"0.00000894","BSTAR":"0.00007890800000","ECCENTRICITY":"0.00023100","OBJECT_ID":"2021-040AX","TIME_SYSTEM":"UTC","RA_OF_ASC_NODE":"205.7124","PERIOD":"95.592","SEMIMAJOR_AXIS":"6925.337","DECAY_DATE":null,"EPOCH":"2022-01-02T21:17:22.155936","EPHEMERIS_TYPE":"0","NORAD_CAT_ID":"48473","REF_FRAME":"TEME"},{"GP_ID":"192944991","FILE":"3255249","OBJECT_NAME":"STARLINK-2697","RCS_SIZE":"LARGE","CENTER_NAME":"EARTH","SITE":"AFETR","TLE_LINE1":"1 48474U 21040AY  22002.78756560  .00000277  00000-0  37482-4 0  9998","MEAN_ANOMALY":"283.5455","MEAN_ELEMENT_THEORY":"SGP4","LAUNCH_DATE":"2021-05-09","MEAN_MOTION_DDOT":"0.0000000000000","REV_AT_EPOCH":"3634","ARG_OF_PERICENTER":"76.5752","COUNTRY_CODE":"US","CLASSIFICATION_TYPE":"U","APOAPSIS":"548.594","TLE_LINE2":"2 48474  53.0525 206.1391 0001958  76.5752 283.5455 15.06391949 36341","MEAN_MOTION":"15.06391949","INCLINATION":"53.0525","NORAD_CAT_ID":"48474","REF_FRAME":"TEME","EPHEMERIS_TYPE":"0","EPOCH":"2022-01-02T18:54:05.667840","DECAY_DATE":null,"TIME_SYSTEM":"UTC","PERIOD":"95.593","RA_OF_ASC_NODE":"206.1391","SEMIMAJOR_AXIS":"6925.373","OBJECT_ID":"2021-040AY","MEAN_MOTION_DOT":"0.00000277","BSTAR":"0.00003748200000","ECCENTRICITY":"0.00019580","PERIAPSIS":"545.882","OBJECT_TYPE":"PAYLOAD","ELEMENT_SET_NO":"999"},{"CENTER_NAME":"EARTH","RCS_SIZE":"LARGE","OBJECT_NAME":"STARLINK-2619","FILE":"3255249","GP_ID":"192944489","MEAN_ANOMALY":"290.6140","MEAN_ELEMENT_THEORY":"SGP4","LAUNCH_DATE":"2021-05-09","TLE_LINE1":"1 48475U 21040AZ  22002.89075081  .00000901  00000-0  79403-4 0  9996","SITE":"AFETR","CLASSIFICATION_TYPE":"U","COUNTRY_CODE":"US","REV_AT_EPOCH":"3636","ARG_OF_PERICENTER":"69.5075","MEAN_MOTION_DDOT":"0.0000000000000","INCLINATION":"53.0554","MEAN_MOTION":"15.06402572","TLE_LINE2":"2 48475  53.0554 205.6903 0002107  69.5075 290.6140 15.06402572 36361","APOAPSIS":"548.665","EPHEMERIS_TYPE":"0","NORAD_CAT_ID":"48475","REF_FRAME":"TEME","OBJECT_ID":"2021-040AZ","TIME_SYSTEM":"UTC","PERIOD":"95.592","SEMIMAJOR_AXIS":"6925.341","RA_OF_ASC_NODE":"205.6903","DECAY_DATE":null,"EPOCH":"2022-01-02T21:22:40.869984","MEAN_MOTION_DOT":"0.00000901","ECCENTRICITY":"0.00021070","BSTAR":"0.00007940300000","ELEMENT_SET_NO":"999","OBJECT_TYPE":"PAYLOAD","PERIAPSIS":"545.747"},{"CENTER_NAME":"EARTH","RCS_SIZE":"LARGE","OBJECT_NAME":"STARLINK-2723","GP_ID":"192944239","FILE":"3255249","LAUNCH_DATE":"2021-05-09","MEAN_ANOMALY":"277.6354","MEAN_ELEMENT_THEORY":"SGP4","TLE_LINE1":"1 48476U 21040BA  22002.84652218  .00000691  00000-0  65285-4 0  9994","SITE":"AFETR","CLASSIFICATION_TYPE":"U","COUNTRY_CODE":"US","ARG_OF_PERICENTER":"82.4877","REV_AT_EPOCH":"3635","MEAN_MOTION_DDOT":"0.0000000000000","MEAN_MOTION":"15.06401952","INCLINATION":"53.0506","TLE_LINE2":"2 48476  53.0506 205.8928 0002130  82.4877 277.6354 15.06401952 36350","APOAPSIS":"548.683","EPHEMERIS_TYPE":"0","REF_FRAME":"TEME","NORAD_CAT_ID":"48476","OBJECT_ID":"2021-040BA","PERIOD":"95.592","RA_OF_ASC_NODE":"205.8928","SEMIMAJOR_AXIS":"6925.343","TIME_SYSTEM":"UTC","DECAY_DATE":null,"EPOCH":"2022-01-02T20:18:59.516352","MEAN_MOTION_DOT":"0.00000691","BSTAR":"0.00006528500000","ECCENTRICITY":"0.00021300","ELEMENT_SET_NO":"999","PERIAPSIS":"545.732","OBJECT_TYPE":"PAYLOAD"},{"MEAN_MOTION":"15.06397774","INCLINATION":"53.0555","APOAPSIS":"548.651","TLE_LINE2":"2 48478  53.0555 205.9586 0002066  80.3909 279.7313 15.06397774 36352","COUNTRY_CODE":"US","CLASSIFICATION_TYPE":"U","MEAN_MOTION_DDOT":"0.0000000000000","REV_AT_EPOCH":"3635","ARG_OF_PERICENTER":"80.3909","MEAN_ANOMALY":"279.7313","MEAN_ELEMENT_THEORY":"SGP4","LAUNCH_DATE":"2021-05-09","SITE":"AFETR","TLE_LINE1":"1 48478U 02032DG  22002.83179189  .00001189  00000-0  98699-4 0  9994","RCS_SIZE":"LARGE","CENTER_NAME":"EARTH","FILE":"3255249","GP_ID":"192944989","OBJECT_NAME":"STARLINK-2728","ELEMENT_SET_NO":"999","OBJECT_TYPE":"PAYLOAD","PERIAPSIS":"545.790","BSTAR":"0.00009869900000","MEAN_MOTION_DOT":"0.00001189","ECCENTRICITY":"0.00020660","TIME_SYSTEM":"UTC","PERIOD":"95.592","SEMIMAJOR_AXIS":"6925.355","RA_OF_ASC_NODE":"205.9586","OBJECT_ID":"2021-040BC","EPOCH":"2022-01-02T19:57:46.819296","DECAY_DATE":null,"NORAD_CAT_ID":"48478","REF_FRAME":"TEME","EPHEMERIS_TYPE":"0"},{"EPOCH":"2022-01-02T19:52:28.143264","DECAY_DATE":null,"RA_OF_ASC_NODE":"205.9747","PERIOD":"95.592","SEMIMAJOR_AXIS":"6925.355","TIME_SYSTEM":"UTC","OBJECT_ID":"2021-040BD","REF_FRAME":"TEME","NORAD_CAT_ID":"48479","EPHEMERIS_TYPE":"0","OBJECT_TYPE":"PAYLOAD","PERIAPSIS":"545.738","ELEMENT_SET_NO":"999","MEAN_MOTION_DOT":"0.00000741","ECCENTRICITY":"0.00021410","BSTAR":"0.00006866700000","SITE":"AFETR","TLE_LINE1":"1 48479U 21040BD  22002.82810351  .00000741  00000-0  68667-4 0  9992","LAUNCH_DATE":"2021-05-09","MEAN_ELEMENT_THEORY":"SGP4","MEAN_ANOMALY":"286.1775","GP_ID":"192945492","FILE":"3255249","OBJECT_NAME":"STARLINK-2755","RCS_SIZE":"LARGE","CENTER_NAME":"EARTH","APOAPSIS":"548.703","TLE_LINE2":"2 48479  53.0552 205.9747 0002141  73.9450 286.1775 15.06397801 36357","INCLINATION":"53.0552","MEAN_MOTION":"15.06397801","MEAN_MOTION_DDOT":"0.0000000000000","ARG_OF_PERICENTER":"73.9450","REV_AT_EPOCH":"3635","COUNTRY_CODE":"US","CLASSIFICATION_TYPE":"U"},{"ARG_OF_PERICENTER":"72.0502","REV_AT_EPOCH":"3622","MEAN_MOTION_DDOT":"0.0000000000000","CLASSIFICATION_TYPE":"U","COUNTRY_CODE":"US","TLE_LINE2":"2 48480  53.0546 215.5987 0002260  72.0502 288.0733 15.06398007 36225","APOAPSIS":"548.785","INCLINATION":"53.0546","MEAN_MOTION":"15.06398007","OBJECT_NAME":"STARLINK-2690","FILE":"3255249","GP_ID":"192945742","CENTER_NAME":"EARTH","RCS_SIZE":"LARGE","TLE_LINE1":"1 48480U 21040BE  22002.90827016  .00000934  00000-0  81649-4 0  9998","SITE":"AFETR","LAUNCH_DATE":"2021-05-09","MEAN_ANOMALY":"288.0733","MEAN_ELEMENT_THEORY":"SGP4","BSTAR":"0.00008164900000","MEAN_MOTION_DOT":"0.00000934","ECCENTRICITY":"0.00022600","OBJECT_TYPE":"PAYLOAD","PERIAPSIS":"545.655","ELEMENT_SET_NO":"999","EPHEMERIS_TYPE":"0","REF_FRAME":"TEME","NORAD_CAT_ID":"48480","DECAY_DATE":null,"EPOCH":"2022-01-02T21:47:54.541824","OBJECT_ID":"2021-040BE","PERIOD":"95.592","SEMIMAJOR_AXIS":"6925.355","RA_OF_ASC_NODE":"215.5987","TIME_SYSTEM":"UTC"},{"REV_AT_EPOCH":"3620","ARG_OF_PERICENTER":"70.0414","MEAN_MOTION_DDOT":"0.0000000000000","CLASSIFICATION_TYPE":"U","COUNTRY_CODE":"US","TLE_LINE2":"2 48481  53.0555 216.1364 0001874  70.0414 290.0777 15.06395715 36204","APOAPSIS":"548.525","INCLINATION":"53.0555","MEAN_MOTION":"15.06395715","OBJECT_NAME":"STARLINK-2706","FILE":"3255249","GP_ID":"192945993","CENTER_NAME":"EARTH","RCS_SIZE":"LARGE","TLE_LINE1":"1 48481U 21040BF  22002.78938123  .00001260  00000-0  10350-3 0  9990","SITE":"AFETR","MEAN_ANOMALY":"290.0777","MEAN_ELEMENT_THEORY":"SGP4","LAUNCH_DATE":"2021-05-09","ECCENTRICITY":"0.00018740","MEAN_MOTION_DOT":"0.00001260","BSTAR":"0.00010350000000","OBJECT_TYPE":"PAYLOAD","PERIAPSIS":"545.929","ELEMENT_SET_NO":"999","EPHEMERIS_TYPE":"0","NORAD_CAT_ID":"48481","REF_FRAME":"TEME","DECAY_DATE":null,"EPOCH":"2022-01-02T18:56:42.538272","OBJECT_ID":"2021-040BF","TIME_SYSTEM":"UTC","RA_OF_ASC_NODE":"216.1364","PERIOD":"95.592","SEMIMAJOR_AXIS":"6925.362"},{"OBJECT_NAME":"STARLINK-2525","FILE":"3255249","GP_ID":"192944990","CENTER_NAME":"EARTH","RCS_SIZE":"LARGE","TLE_LINE1":"1 48482U 21040BG  22002.84930178 -.00000768  00000-0 -32619-4 0  9997","SITE":"AFETR","MEAN_ANOMALY":"296.3006","MEAN_ELEMENT_THEORY":"SGP4","LAUNCH_DATE":"2021-05-09","REV_AT_EPOCH":"3621","ARG_OF_PERICENTER":"63.8218","MEAN_MOTION_DDOT":"0.0000000000000","CLASSIFICATION_TYPE":"U","COUNTRY_CODE":"US","TLE_LINE2":"2 48482  53.0555 215.8712 0002286  63.8218 296.3006 15.06393265 36211","APOAPSIS":"548.817","MEAN_MOTION":"15.06393265","INCLINATION":"53.0555","EPHEMERIS_TYPE":"0","NORAD_CAT_ID":"48482","REF_FRAME":"TEME","DECAY_DATE":null,"EPOCH":"2022-01-02T20:22:59.673792","OBJECT_ID":"2021-040BG","TIME_SYSTEM":"UTC","PERIOD":"95.593","SEMIMAJOR_AXIS":"6925.369","RA_OF_ASC_NODE":"215.8712","BSTAR":"-0.00003261900000","MEAN_MOTION_DOT":"-0.00000768","ECCENTRICITY":"0.00022860","OBJECT_TYPE":"PAYLOAD","PERIAPSIS":"545.651","ELEMENT_SET_NO":"999"}];
